[{"OBJECT_NAME":"ONEWEB-0368","OBJECT_ID":"2021-090R","EPOCH":"2026-03-09T16:01:15.612384","MEAN_MOTION":13.20771385,"ECCENTRICITY":0.00010811,"INCLINATION":87.9161,"RA_OF_ASC_NODE":294.3317,"ARG_OF_PERICENTER":110.464,"MEAN_ANOMALY":249.661,"EPHEMERIS_TYPE":0,"CLASSIFICATION_TYPE":"U","NORAD_CAT_ID":49294,"ELEMENT_SET_NO":999,"REV_AT_EPOCH":21784,"BSTAR":-0.00057418285,"MEAN_MOTION_DOT":-2.2e-6,"MEAN_MOTION_DDOT":0},{"OBJECT_NAME":"SCOUT G-1 DEB","OBJECT_ID":"1985-066F","EPOCH":"2026-03-08T07:04:37.312320","MEAN_MOTION":13.41019651,"ECCENTRICITY":0.01380588,"INCLINATION":90.2222,"RA_OF_ASC_NODE":9.4657,"ARG_OF_PERICENTER":231.2309,"MEAN_ANOMALY":283.6905,"EPHEMERIS_TYPE":0,"CLASSIFICATION_TYPE":"U","NORAD_CAT_ID":16020,"ELEMENT_SET_NO":999,"REV_AT_EPOCH":98239,"BSTAR":0.00022356574,"MEAN_MOTION_DOT":1.38e-6,"MEAN_MOTION_DDOT":0}]
